STARLINK-30480          
1 58069U 23158U   26068.50969982  .00008629  00000+0  32270-3 0  9998
2 58069  42.9995 245.8442 0003556 286.2390  73.8070 15.27582544135216
LIZZIESAT-2 (LS-2)      
1 62383U 24247G   26068.49140277  .00009388  00000+0  34517-3 0  9997
2 62383  44.9909 117.0823 0004092 327.5136  32.5495 15.28222796 67716
